#dP2022  4 30 18  0  0.00000000      96 __u+U ITR00 EXT  IAC
## 2207 583200.00000000   900.00000000 59699 0.7500000000000
+  117   C06C07C08C09C10C11C12C13C14C16C19C20C21C22C23C24C25
+        C26C27C28C29C30C32C33C34C35C36C37C38C39C40C41C42C43
+        C44C45C46E01E02E03E04E05E07E08E09E10E11E12E13E14E15
+        E18E19E21E24E25E26E27E30E31E33E34E36G01G02G03G04G05
+        G06G07G08G09G10G11G12G13G14G15G16G17G18G19G20G21G22
+        G23G24G25G26G27G28G29G30G31G32J02J03R01R02R03R04R05
+        R07R08R09R11R12R13R14R15R17R18R19R20R21R22R24  0  0
++        10  9  9 11  8  9  8 10  8 10  8  8  8  9  8  7  8
++         7  8  8 10 10  9  8  6 10 10  9  7  8 11  7 10  8
++         7  8 10  9  9  8  7  7  8  8  8 11  7  9  8  8  8
++         7  8  8  8  8  7  8  8  8  9  7  7  9  7  8  8  8
++         8  8  8  8  7  8  8  7  9  8  8  8  9  8  7  9  8
++         6  8  7  8  9  8  8  8  9  8  9  9  0  9 10  8  8
++         8  8  9  8  8  9 10  9  9  9  9  9  9 10  9  0  0
%c M  cc GPS ccc cccc cccc cccc cccc ccccc ccccc ccccc ccccc
%c cc cc ccc ccc cccc cccc cccc cccc ccccc ccccc ccccc ccccc
%f  0.0000000  0.000000000  0.00000000000  0.000000000000000
%f  0.0000000  0.000000000  0.00000000000  0.000000000000000
%i    0    0    0    0      0      0      0      0         0
%i    0    0    0    0      0      0      0      0         0
/* IAC                                ULTRA-RAPID PREDICTION
/* S/V CLOCKS ARE ALIGNED TO GNSS TIME                      
/* G:C1WC2W R:C1PC2P E:C1XC5X C:C2IC6I J:C1CC2S             
/* PCV:IGS14_2196 OL/AL:FES2004  NONE     YN ORB:CoN CLK:CoN
*  2022 05 01 10 15  0.00000000
PC06 -16887.102204  26291.101210 -28393.054588   -101.721443
PC07 -10267.329845  40338.116338  -6201.700094   -109.769088
PC08   -258.769307  25497.051795  33626.057157    289.415823
PC09  -7306.549076  25629.898445 -32413.906416   -746.702237
PC10  -3848.032694  41710.305982   1354.161374    134.226529
PC11  26690.886709  -8174.474199    625.703301    325.269544
PC12  22007.040288   4203.463744  16671.752106   -622.230774
PC13   7576.426713  30017.921862  28873.511939    -45.301159
PC14  16111.639375 -10433.353475 -20250.743272    466.038996
PC16 -19904.300226  25642.966104 -26871.795263    126.347375
PC19 -13557.324782  19770.300492  14297.400377    873.716045
PC20 -16127.092652   1274.307319  22755.361301   -897.710107
PC21   9129.512450  19183.626307 -18056.043034   -210.799859
PC22  -3052.658074  27574.779506  -2837.189912   -973.269995
PC23  -3349.736661 -20512.225154  18625.177119   -930.566336
PC24  23535.550870   8538.822913  12338.360395   -958.991575
PC25  13494.657919  -9697.518480  22413.458313   -743.067145
PC26  19860.231099  19343.614580  -3354.242564    744.074936
PC27 -14865.880459 -10453.234738 -21205.211003    716.351769
PC28   4978.532604 -17279.542503 -21340.840681     61.642983
PC29 -21994.528864  14840.532821   8645.688828    548.721858
PC30 -26109.915069   2959.431018  -9442.396928    497.818131
PC32  -9283.732989 -19173.284729  18055.704597   -962.636420
PC33  13460.162185 -19839.351835 -14288.495371   -966.030826
PC34  26310.396627  -3643.440381   8500.601000   -413.388368
PC35  -5462.212852  17653.988749  20909.676310    253.841299
PC36 -14116.285671   8953.043352 -22322.931625   -963.810480
PC37 -18708.361743 -20208.900719   4461.790278   -916.699573
PC38  -8509.746596  22739.760250  34519.606074    229.022399
PC39 -24656.238464  26030.517965 -22298.734476     34.967206
PC40 -15689.016358  37843.788718  -9622.699760    265.400846
PC41   3203.936936 -27619.806896   2461.821162   -965.928831
PC42  16028.933709   -165.845985 -22794.559462   -960.431598
PC43  22429.729422 -14517.735314  -8022.531073   -926.714447
PC44  15036.182351  10166.737513  21172.203340    645.419051
PC45   3716.544306  20537.360683 -18533.102221    745.565472
PC46 -23244.333030  -7251.882324 -13600.767229   -301.055379
PE01 -16421.552976   3334.192287 -24402.478227   -623.930016
PE02  16366.775125  -3499.592132  24409.640712    296.339973
PE03  23052.158944 -13242.140883 -13025.103043   -553.699643
PE04 -15941.743094  24454.635802  -4882.536706  -1018.383254
PE05  16746.377101   6006.534847 -23647.748358   -185.742644
PE07   -802.876226 -21476.679707  20370.557262   -664.089843
PE08  15670.872486 -24575.165221   5210.266844   -521.594402
PE09    915.768965  21301.475029 -20515.946402   -503.080924
PE10   -990.314794  16070.431308  24828.130508   -510.172921
PE11  10943.929449  16390.401212  22066.050377   3801.063142
PE12 -12244.137284  13346.100346  23413.588178   4635.702946
PE13 -10264.938076 -16374.566531 -22423.958519    428.391704
PE14  -7174.217994 -20043.646516 -24101.185332  -1833.357272
PE15  12323.994144 -13257.416388 -23415.744768    748.355038
PE18  13220.301980   8950.168489  18379.556841  -1500.607513
PE19 -22978.985452  11088.457658  15020.130966  -3927.979807
PE21 -18077.885504 -16441.710990 -16706.456491   -731.629067
PE24   8544.235467  28267.042738  -2224.894870   -590.834251
PE25  18028.089391  16696.071179  16509.717474   -572.357764
PE26 -27072.234973  -9473.667480  -7326.413180  -1093.540362
PE27  -9453.227807 -28025.943544   1041.651124   -288.687142
PE30   5492.297258 -22326.364293  18623.366778   -474.837455
PE31  -4650.232591  23022.521222 -18012.796893   -495.928798
PE33 -27549.914379   2332.447892  10592.581070   -457.080260
PE34  27453.791313  -2522.501438 -10784.329623   -514.834082
PE36  26646.586837   9856.923686   8278.069185   -367.403357
PG01 -20026.813073 -14013.697173 -11115.293301    372.715030
PG02  -1153.698324  15461.392757  22212.536036   -653.269744
PG03 -12770.868198 -20292.936902  11443.506860   -227.953821
PG04 -11267.202699 -10320.615072  21737.831633   -171.257779
PG05   5072.864853  25801.881557   2938.984056    -80.261864
PG06 -17099.728190   7784.281846  18871.289092    286.746525
PG07 -25994.373651  -5337.718550  -3553.684487    321.473284
PG08  -2880.715804 -16876.141882 -20249.921916    -66.190805
PG09 -18994.689755    201.877244  18509.866496   -339.983287
PG10  12977.479884  -8407.099022 -21409.031930   -398.269486
PG11  -1904.606860  15305.336195  21620.363470    -31.062403
PG12   9356.217734  23506.596032   8009.131979   -208.702405
PG13  -7243.514205  19328.118035 -16769.321983    303.760832
PG14 -14092.473526   7074.551674 -21366.994164   -106.003716
PG15   5957.048968  16530.280992 -20251.047261    -64.694675
PG16   1155.838661 -25309.353160   6862.198333   -496.906660
PG17 -22033.332708  13803.984984  -5109.646789    607.199558
PG18  25745.210724   5609.568570  -3784.857265    181.668992
PG19 -20534.289094  16599.262217   1270.159649    151.544064
PG20   -690.300966  23269.108194  12998.987869    515.573339
PG21 -12116.922308 -15282.000277 -17685.167810    160.844597
PG22  18237.409113 -18688.808144   4699.247715    252.043982
PG23  15914.855180   3794.686145 -20952.771598    -18.890373
PG24  17329.117707  14662.781049 -14414.157085    248.499233
PG25  15680.908152  11934.518519  17646.452897    319.067301
PG26   7087.065289 -19215.654590  16658.561787    202.557219
PG27   8898.775671 -21000.738620 -13478.239125    194.920120
PG28 -10120.557781  16404.258640 -17862.041900    364.882150
PG29  18315.466199   1678.430636  19133.784017   -508.992594
PG30 -23590.073262   1887.431566 -12228.779651   -526.130663
PG31  15431.904045  -9429.726573  19474.776439   -175.763476
PG32  20650.313022 -16078.668070  -3731.027485   -117.234102
PJ02 -18819.703729  25651.534509 -23215.424316     -3.149002
PJ03 -30404.954603  26366.186935  17709.355146     -1.865097
PR01      0.000000      0.000000      0.000000      8.292209
PR02  10689.353106 -22866.764722  -3403.932991    517.081943
PR03   1398.288603 -21581.652728  13533.469088     55.888062
PR04  -8201.781918  -8265.680424  22728.136187    139.380510
PR05 -13511.115083   9554.225214  19437.020935     92.110437
PR07  -1085.884522  21297.463032 -13986.099705     34.533863
PR08   8349.912994   8174.611007 -22613.625078    -64.888354
PR09  -2445.902320  13520.590225 -21459.358141     52.699136
PR11  18123.084267  16586.836538   6845.793172     39.993697
PR12  14601.754578   2103.624532  20837.253390     18.214606
PR13   3262.215441 -12490.052618  21983.564725    -21.669247
PR14 -11070.666943 -20818.968590   9762.458895     77.120802
PR15 -18051.395107 -16338.410470  -7595.795996     96.456596
PR17  -3449.116909 -10106.059695 -23160.143586    522.237172
PR18 -19487.501996  -4368.605707 -15894.759513    115.377316
PR19 -25359.677006   2364.354127  -1434.321596   -187.403203
PR20 -16088.056670   9609.806269  17333.907055    -69.719529
PR21   5067.543721   9719.103401  23029.603978   -297.702276
PR22  19939.513122   4106.018301  15281.820006   -180.364721
PR24  15161.877456 -10476.620276 -17627.858497     91.647305
EOF
